NORAD_CAT_ID,OBJECT_NAME,OBJECT_TYPE,EPOCH,MEAN_MOTION,ECCENTRICITY,INCLINATION,RA_OF_ASC_NODE,ARG_OF_PERICENTER,MEAN_ANOMALY,BSTAR,MEAN_MOTION_DOT,MEAN_MOTION_DDOT,TLE_LINE0,TLE_LINE1,TLE_LINE2,SEMIMAJOR_AXIS,PERIOD,APOGEE,PERIGEE,DECAYED
53833.0,STARLINK-4771,PAYLOAD,2022-10-25 00:00:00,15.73172423,0.0001529,53.2144,80.8493,40.7685,279.9308,0.00028332,0.00039281,0.0,0 STARLINK-4771,1 53833U 22114R   22298.00001157  .00039281  00000-0  28332-3 0  9993,2 53833  53.2144  80.8493 0001529  40.7685 279.9308 15.73172423  6236,6727.974,91.535,350.86800000000005,348.81,0.0
53833.0,STARLINK-4771,PAYLOAD,2022-10-25 14:00:01,15.7323575,0.0001712,53.2146,77.9623,46.8142,339.5022,-0.00036072,-0.00051019,0.0,0 STARLINK-4771,1 53833U 22114R   22298.58334491 -.00051019  00000-0 -36072-3 0  9991,2 53833  53.2146  77.9623 0001712  46.8142 339.5022 15.73235750  1301,6727.793000000002,91.531,350.81,348.506,0.0
53833.0,STARLINK-4771,PAYLOAD,2022-10-25 22:00:01,15.73234615,0.0001824,53.2141,76.3134,42.2765,73.046,-7.6378e-05,-0.00011342,0.0,0 STARLINK-4771,1 53833U 22114R   22298.91668981 -.00011342  00000-0 -76378-4 0  9991,2 53833  53.2141  76.3134 0001824  42.2765  73.0460 15.73234615  6389,6727.795999999999,91.531,350.889,348.434,0.0
53833.0,STARLINK-4771,PAYLOAD,2022-10-26 14:00:01,15.73183672,0.0001535,53.2147,73.0139,33.1728,259.9668,0.00023852,0.00032963,0.0,0 STARLINK-4771,1 53833U 22114R   22299.58334491  .00032963  00000-0  23852-3 0  9999,2 53833  53.2147  73.0139 0001535  33.1728 259.9668 15.73183672  1309,6727.941999999999,91.534,350.839,348.774,0.0
53833.0,STARLINK-4771,PAYLOAD,2022-10-26 22:00:00,15.7323437,0.0001748,53.2148,71.3649,28.6437,353.4103,8.411e-05,0.00011217,0.0,0 STARLINK-4771,1 53833U 22114R   22299.91667824  .00011217  00000-0  84110-4 0  9999,2 53833  53.2148  71.3649 0001748  28.6437 353.4103 15.73234370  1305,6727.797,91.531,350.838,348.486,0.0
53833.0,STARLINK-4771,PAYLOAD,2022-10-27 14:00:01,15.73217503,0.0001509,53.2172,68.066,46.4327,153.6541,-0.0054317,-0.00702883,0.0,0 STARLINK-4771,1 53833U 22114R   22300.58335648 -.00702883  00000-0 -54317-2 0  9993,2 53833  53.2172  68.0660 0001509  46.4327 153.6541 15.73217503  1304,6727.845,91.532,350.726,348.695,0.0
53833.0,STARLINK-4771,PAYLOAD,2022-10-27 22:00:00,15.72725674,0.0001523,53.2167,66.4178,19.86,268.8274,-0.0087475,-0.01079651,0.0,0 STARLINK-4771,1 53833U 22114R   22300.91667824 -.01079651  00000-0 -87475-2 0  9996,2 53833  53.2167  66.4178 0001523  19.8600 268.8274 15.72725674  1302,6729.248000000001,91.561,352.13800000000015,350.088,0.0
53833.0,STARLINK-4771,PAYLOAD,2022-10-28 00:00:02,15.72556231,0.0001753,53.217,66.0053,22.6794,18.1247,-0.0092443,-0.01127119,0.0,0 STARLINK-4771,1 53833U 22114R   22301.00002315 -.01127119  00000-0 -92443-2 0  9999,2 53833  53.2170  66.0053 0001753  22.6794  18.1247 15.72556231  6701,6729.731,91.571,352.776,350.416,0.0
53833.0,STARLINK-4771,PAYLOAD,2022-10-28 08:00:01,15.7173667,0.0006612,53.2174,64.3571,270.9516,217.5072,-0.0094793999999999,-0.01119997,0.0,0 STARLINK-4771,1 53833U 22114R   22301.33335648 -.01119997  00000-0 -94794-2 0  9999,2 53833  53.2174  64.3571 0006612 270.9516 217.5072 15.71736670  6763,6732.07,91.618,358.38699999999994,349.4840000000001,0.0
53833.0,STARLINK-4771,PAYLOAD,2022-10-28 14:00:01,15.71145934,0.0001082999999999,53.217,63.1246,0.0161,103.5312,-0.0100159999999999,-0.01147009,0.0,0 STARLINK-4771,1 53833U 22114R   22301.58335648 -.01147009  00000-0 -10016-1 0  9995,2 53833  53.2170  63.1246 0001083   0.0161 103.5312 15.71145934  1303,6733.7580000000025,91.653,356.352,354.894,0.0
53833.0,STARLINK-4771,PAYLOAD,2022-10-28 22:00:01,15.70324506,0.0001521999999999,53.2169,61.4815,41.6417,147.8489,-0.010253,-0.01135649,0.0,0 STARLINK-4771,1 53833U 22114R   22301.91668981 -.01135649  00000-0 -10253-1 0  9991,2 53833  53.2169  61.4815 0001522  41.6417 147.8489 15.70324506  1306,6736.106,91.701,358.996,356.946,0.0
53833.0,STARLINK-4771,PAYLOAD,2022-10-29 12:00:00,15.68908594,0.0001279,53.2174,58.6092,55.3597,192.1028,-0.01095,-0.01161179,0.0,0 STARLINK-4771,1 53833U 22114R   22302.50001157 -.01161179  00000-0 -10950-1 0  9994,2 53833  53.2174  58.6092 0001279  55.3597 192.1028 15.68908594  1301,6740.158,91.784,362.885,361.161,0.0
53833.0,STARLINK-4771,PAYLOAD,2022-10-29 22:00:01,15.67873727,0.0001356,53.2172,56.5626,44.4658,36.9826,-0.011183,-0.01138535,0.0,0 STARLINK-4771,1 53833U 22114R   22302.91668981 -.01138535  00000-0 -11183-1 0  9992,2 53833  53.2172  56.5626 0001356  44.4658  36.9826 15.67873727  1301,6743.124,91.844,365.903,364.074,0.0
53833.0,STARLINK-4771,PAYLOAD,2022-10-30 00:00:00,15.6767168,0.0001394,53.2174,56.1531,53.7129,138.2691,-0.011306,-0.01141266,0.0,0 STARLINK-4771,1 53833U 22114R   22303.00001157 -.01141266  00000-0 -11306-1 0  9991,2 53833  53.2174  56.1531 0001394  53.7129 138.2691 15.67671680  7027,6743.703,91.856,366.508,364.628,0.0
53833.0,STARLINK-4771,PAYLOAD,2022-10-30 14:00:01,15.66245393,0.0001406999999999,53.2172,53.2938,46.9786,197.4849,-0.011939,-0.01137362,0.0,0 STARLINK-4771,1 53833U 22114R   22303.58334491 -.01137362  00000-0 -11939-1 0  9998,2 53833  53.2172  53.2938 0001407  46.9786 197.4849 15.66245393  1306,6747.795999999999,91.94,370.611,368.712,0.0
53833.0,STARLINK-4771,PAYLOAD,2022-10-30 22:00:01,15.65443729,0.0001449,53.2167,51.6619,35.1359,289.4604,-0.012527,-0.01153615,0.0,0 STARLINK-4771,1 53833U 22114R   22303.91668981 -.01153615  00000-0 -12527-1 0  9992,2 53833  53.2167  51.6619 0001449  35.1359 289.4604 15.65443729  1303,6750.1,91.987,372.943,370.987,0.0
53833.0,STARLINK-4771,PAYLOAD,2022-10-31 14:00:01,15.63817386,0.0001585,53.2173,48.4049,39.7556,81.9877,-0.013378,-0.01154287,0.0,0 STARLINK-4771,1 53833U 22114R   22304.58334491 -.01154287  00000-0 -13378-1 0  9993,2 53833  53.2173  48.4049 0001585  39.7556  81.9877 15.63817386  1300,6754.779,92.082,377.715,375.573,0.0
53833.0,STARLINK-4771,PAYLOAD,2022-10-31 22:00:01,15.62995829,0.0001810999999999,53.217,46.7787,35.0817,163.8705,-0.013681,-0.01143797,0.0,0 STARLINK-4771,1 53833U 22114R   22304.91668981 -.01143797  00000-0 -13681-1 0  9995,2 53833  53.2170  46.7787 0001811  35.0817 163.8705 15.62995829  1306,6757.146,92.131,380.235,377.787,0.0
53833.0,STARLINK-4771,PAYLOAD,2022-11-01 14:00:01,15.61376956,0.0001389,53.2174,43.5339,41.3665,308.8622,-0.0147419999999999,-0.01155264,0.0,0 STARLINK-4771,1 53833U 22114R   22305.58334491 -.01155264  00000-0 -14742-1 0  9996,2 53833  53.2174  43.5339 0001389  41.3665 308.8622 15.61376956  1301,6761.816,92.226,384.62,382.742,0.0
53833.0,STARLINK-4771,PAYLOAD,2022-11-01 22:00:00,15.60554154,0.0001686999999999,53.2167,41.9135,31.0887,33.3504,-0.015021,-0.01141645,0.0,0 STARLINK-4771,1 53833U 22114R   22305.91667824 -.01141645  00000-0 -15021-1 0  9991,2 53833  53.2167  41.9135 0001687  31.0887  33.3504 15.60554154  7483,6764.191999999999,92.275,387.198,384.916,0.0
53833.0,STARLINK-4771,PAYLOAD,2022-11-02 14:00:01,15.58920827,0.0001773,53.2173,38.6809,38.8312,171.0885,-0.015856,-0.01132703,0.0,0 STARLINK-4771,1 53833U 22114R   22306.58334491 -.01132703  00000-0 -15856-1 0  9997,2 53833  53.2173  38.6809 0001773  38.8312 171.0885 15.58920827  1303,6768.916,92.372,391.981,389.581,0.0
53833.0,STARLINK-4771,PAYLOAD,2022-11-02 22:00:00,15.58109147,0.0001327,53.2173,37.0661,50.6374,230.5548,-0.016411,-0.01136138,0.0,0 STARLINK-4771,1 53833U 22114R   22306.91667824 -.01136138  00000-0 -16411-1 0  9997,2 53833  53.2173  37.0661 0001327  50.6374 230.5548 15.58109147  7630,6771.267,92.42,394.03,392.233,0.0
53833.0,STARLINK-4771,PAYLOAD,2022-11-03 14:00:01,15.56502488,0.0001633,53.2174,33.8449,39.8714,20.9219,-0.017902,-0.01163612,0.0,0 STARLINK-4771,1 53833U 22114R   22307.58334491 -.01163612  00000-0 -17902-1 0  9995,2 53833  53.2174  33.8449 0001633  39.8714  20.9219 15.56502488  1303,6775.926,92.515,398.897,396.684,0.0
53833.0,STARLINK-4771,PAYLOAD,2022-11-03 22:00:00,15.55666255,0.0001605,53.2174,32.2361,41.0039,88.1395,-0.0179229999999999,-0.01132422,0.0,0 STARLINK-4771,1 53833U 22114R   22307.91667824 -.01132422  00000-0 -17923-1 0  9999,2 53833  53.2174  32.2361 0001605  41.0039  88.1395 15.55666255  7795,6778.354,92.565,401.307,399.131,0.0
53833.0,STARLINK-4771,PAYLOAD,2022-11-04 14:00:01,15.54038439,0.0001536,53.2175,29.0274,46.5531,216.3338,-0.019012,-0.01131116,0.0,0 STARLINK-4771,1 53833U 22114R   22308.58334491 -.01131116  00000-0 -19012-1 0  9994,2 53833  53.2175  29.0274 0001536  46.5531 216.3338 15.54038439  1302,6783.0859999999975,92.662,405.99300000000005,403.909,0.0
53833.0,STARLINK-4771,PAYLOAD,2022-11-04 22:00:01,15.53226597,0.0001269,53.2171,27.4238,47.4889,280.8689,-0.019662,-0.01134977,0.0,0 STARLINK-4771,1 53833U 22114R   22308.91668981 -.01134977  00000-0 -19662-1 0  9994,2 53833  53.2171  27.4238 0001269  47.4889 280.8689 15.53226597  7943,6785.45,92.71,408.176,406.454,0.0
53833.0,STARLINK-4771,PAYLOAD,2022-11-05 14:00:01,15.51600279,0.000152,53.2173,24.2268,51.862,44.3713,-0.020864,-0.01135319,0.0,0 STARLINK-4771,1 53833U 22114R   22309.58335648 -.01135319  00000-0 -20864-1 0  9996,2 53833  53.2173  24.2268 0001520  51.8620  44.3713 15.51600279  1301,6790.19,92.807,413.087,411.023,0.0
53833.0,STARLINK-4771,PAYLOAD,2022-11-05 22:00:01,15.50698455,0.0001818,53.2171,22.6292,39.1365,119.574,-0.015733,-0.00840352,0.0,0 STARLINK-4771,1 53833U 22114R   22309.91668981 -.00840352  00000-0 -15733-1 0  9990,2 53833  53.2171  22.6292 0001818  39.1365 119.5740 15.50698455  8105,6792.823,92.861,415.923,413.453,0.0
53833.0,STARLINK-4771,PAYLOAD,2022-11-06 06:00:00,15.49984478,0.0001808,53.217,21.0344,41.3141,178.857,-0.0027961,-0.00156573,0.0,0 STARLINK-4771,1 53833U 22114R   22310.25001157 -.00156573  00000-0 -27961-2 0  9997,2 53833  53.2170  21.0344 0001808  41.3141 178.8570 15.49984478  8156,6794.908,92.904,418.002,415.545,0.0
